OBJECT_NAME,OBJECT_ID,EPOCH,MEAN_MOTION,ECCENTRICITY,INCLINATION,RA_OF_ASC_NODE,ARG_OF_PERICENTER,MEAN_ANOMALY,EPHEMERIS_TYPE,CLASSIFICATION_TYPE,NORAD_CAT_ID,ELEMENT_SET_NO,REV_AT_EPOCH,BSTAR,MEAN_MOTION_DOT,MEAN_MOTION_DDOT
IRIDIUM 154,2018-061F,2026-07-20T02:13:18.511104,14.34217324,.00021972,86.3935,43.0421,89.0133,271.1314,0,U,43574,999,41812,-.881874E-6,.17E-6,0
IRIDIUM 163,2018-061G,2026-07-20T01:45:54.496224,14.34217883,.00021235,86.3935,42.9641,87.7459,272.3980,0,U,43575,999,41809,.19263388E-4,.74E-6,0
IRIDIUM 156,2018-061H,2026-07-20T01:09:22.367520,14.34216885,.00021763,86.3937,42.9825,93.6055,266.5390,0,U,43576,999,41808,.36737274E-4,.123E-5,0
IRIDIUM 164,2018-061J,2026-07-20T02:22:26.506560,14.34217458,.00022313,86.3934,43.0018,88.6858,271.4593,0,U,43577,999,41813,-.21582348E-4,-.41E-6,0
IRIDIUM 159,2018-061K,2026-07-20T06:38:10.450176,14.34217546,.00021056,86.3936,42.8637,87.1425,273.0012,0,U,43578,999,41812,-.2264682E-5,.13E-6,0
IRIDIUM 180,2019-002A,2026-07-20T03:16:30.975168,14.34217046,.00020567,86.3993,339.8247,91.5090,268.6342,0,U,43922,999,39371,-.40964934E-4,-.95E-6,0
IRIDIUM 176,2019-002B,2026-07-20T02:57:45.541728,14.72252723,.00023484,86.6118,339.7686,91.8302,268.3184,0,U,43923,999,40409,.59359666E-4,.399E-5,0
IRIDIUM 168,2019-002C,2026-07-20T03:07:23.046240,14.34217862,.00022061,86.4000,339.9051,91.5115,268.6334,0,U,43924,999,39369,.40687849E-4,.134E-5,0
IRIDIUM 173,2019-002D,2026-07-19T21:47:42.940032,14.34217995,.00021356,86.3997,339.8855,92.8731,267.2709,0,U,43925,999,39364,.4029209E-5,.31E-6,0
IRIDIUM 169,2019-002E,2026-07-20T05:19:09.539616,14.38604651,.00020745,86.4228,11.3782,104.5283,255.6145,0,U,43926,999,39497,.20737831E-4,.83E-6,0
IRIDIUM 172,2019-002F,2026-07-20T07:41:22.947072,14.34218185,.00021972,86.3997,339.7214,91.8856,268.2591,0,U,43927,999,39371,.21925174E-4,.81E-6,0
IRIDIUM 175,2019-002G,2026-07-20T03:08:30.053760,14.43628804,.0005504,86.4506,276.7510,105.8292,254.3516,0,U,43928,999,40373,.45192033E-4,.173E-5,0
IRIDIUM 171,2019-002H,2026-07-19T21:11:11.017824,14.34217185,.00022622,86.4007,340.2139,95.8722,264.2731,0,U,43929,999,39364,.4800195E-5,.33E-6,0
IRIDIUM 170,2019-002J,2026-07-19T22:13:01.212672,14.72253161,.00022099,86.6116,339.8533,89.0651,271.0820,0,U,43930,999,40407,.5847243E-4,.393E-5,0
IRIDIUM 167,2019-002K,2026-07-19T21:02:02.983488,14.34217647,.0002373,86.3997,339.9293,97.7113,262.4352,0,U,43931,999,39364,.1915462E-5,.25E-6,0
IRIDIUM 181,2023-068S,2026-07-20T02:34:26.173632,14.43308722,.00023657,86.4474,43.0228,83.9043,276.2427,0,U,56726,999,16718,.43592332E-4,.167E-5,0
IRIDIUM 177,2023-068T,2026-07-20T07:34:14.575872,14.80029340,.00022327,86.1987,313.0643,97.6936,262.4539,0,U,56727,999,17126,.75277361E-4,.596E-5,0
IRIDIUM 174,2023-068U,2026-07-20T07:42:18.647424,14.72258683,.00019402,86.6124,339.8388,92.5952,267.5487,0,U,56728,999,17089,.68397627E-4,.456E-5,0
IRIDIUM 178,2023-068V,2026-07-20T04:03:42.419808,14.80021472,.00022447,86.6543,11.5753,92.2254,267.9225,0,U,56729,999,17124,.1186977E-4,.116E-5,0
IRIDIUM 179,2023-068W,2026-07-20T05:33:22.051008,14.80024019,.00023849,86.6769,20.6256,94.1261,266.0233,0,U,56730,999,17125,.16045225E-4,.148E-5,0
